<?xml version="1.0" encoding="UTF-8"?>
<!--
  SAMPLE DATA — not a real recorded ride.

  Synthetic track written to exercise RouteMap.astro and src/lib/gpx.ts while
  no real GPX exists. It follows the N256 Évora -> Reguengos de Monsaraz ->
  Monsaraz corridor closely enough to look right on a map and nowhere near
  closely enough to navigate by. Delete it once a recorded track lands.
-->
<gpx version="1.1" creator="SudoRider sample data" xmlns="http://www.topografix.com/GPX/1/1">
  <metadata>
    <name>Exemplo — Évora a Monsaraz</name>
    <desc>Traçado de exemplo (dados sintéticos) para testar o mapa de rotas.</desc>
    <time>2026-08-16T08:30:00Z</time>
  </metadata>
  <trk>
    <name>Exemplo — Évora a Monsaraz</name>
    <type>motorcycling</type>
    <trkseg>
      <trkpt lat="38.57140" lon="-7.91350"><ele>245</ele><time>2026-08-16T08:30:00Z</time></trkpt>
      <trkpt lat="38.57108" lon="-7.91064"><ele>261</ele><time>2026-08-16T08:30:26Z</time></trkpt>
      <trkpt lat="38.57032" lon="-7.90747"><ele>277</ele><time>2026-08-16T08:30:52Z</time></trkpt>
      <trkpt lat="38.56904" lon="-7.90432"><ele>291</ele><time>2026-08-16T08:31:18Z</time></trkpt>
      <trkpt lat="38.56733" lon="-7.90126"><ele>303</ele><time>2026-08-16T08:31:44Z</time></trkpt>
      <trkpt lat="38.56540" lon="-7.89819"><ele>313</ele><time>2026-08-16T08:32:10Z</time></trkpt>
      <trkpt lat="38.56349" lon="-7.89489"><ele>320</ele><time>2026-08-16T08:32:36Z</time></trkpt>
      <trkpt lat="38.56181" lon="-7.89123"><ele>325</ele><time>2026-08-16T08:33:02Z</time></trkpt>
      <trkpt lat="38.56045" lon="-7.88731"><ele>327</ele><time>2026-08-16T08:33:28Z</time></trkpt>
      <trkpt lat="38.55933" lon="-7.88345"><ele>328</ele><time>2026-08-16T08:33:54Z</time></trkpt>
      <trkpt lat="38.55821" lon="-7.87995"><ele>326</ele><time>2026-08-16T08:34:20Z</time></trkpt>
      <trkpt lat="38.55684" lon="-7.87698"><ele>323</ele><time>2026-08-16T08:34:46Z</time></trkpt>
      <trkpt lat="38.55511" lon="-7.87465"><ele>320</ele><time>2026-08-16T08:35:12Z</time></trkpt>
      <trkpt lat="38.55310" lon="-7.87284"><ele>316</ele><time>2026-08-16T08:35:38Z</time></trkpt>
      <trkpt lat="38.55097" lon="-7.87123"><ele>312</ele><time>2026-08-16T08:36:04Z</time></trkpt>
      <trkpt lat="38.54896" lon="-7.86939"><ele>310</ele><time>2026-08-16T08:36:30Z</time></trkpt>
      <trkpt lat="38.54724" lon="-7.86702"><ele>308</ele><time>2026-08-16T08:36:56Z</time></trkpt>
      <trkpt lat="38.54586" lon="-7.86400"><ele>308</ele><time>2026-08-16T08:37:22Z</time></trkpt>
      <trkpt lat="38.54472" lon="-7.86047"><ele>309</ele><time>2026-08-16T08:37:48Z</time></trkpt>
      <trkpt lat="38.54361" lon="-7.85676"><ele>311</ele><time>2026-08-16T08:38:14Z</time></trkpt>
      <trkpt lat="38.54232" lon="-7.85324"><ele>314</ele><time>2026-08-16T08:38:40Z</time></trkpt>
      <trkpt lat="38.54076" lon="-7.85011"><ele>316</ele><time>2026-08-16T08:39:06Z</time></trkpt>
      <trkpt lat="38.53896" lon="-7.84731"><ele>319</ele><time>2026-08-16T08:39:32Z</time></trkpt>
      <trkpt lat="38.53710" lon="-7.84459"><ele>321</ele><time>2026-08-16T08:39:58Z</time></trkpt>
      <trkpt lat="38.53539" lon="-7.84161"><ele>321</ele><time>2026-08-16T08:40:24Z</time></trkpt>
      <trkpt lat="38.53398" lon="-7.83816"><ele>320</ele><time>2026-08-16T08:40:50Z</time></trkpt>
      <trkpt lat="38.53289" lon="-7.83421"><ele>317</ele><time>2026-08-16T08:41:16Z</time></trkpt>
      <trkpt lat="38.53201" lon="-7.82999"><ele>311</ele><time>2026-08-16T08:41:42Z</time></trkpt>
      <trkpt lat="38.53115" lon="-7.82588"><ele>304</ele><time>2026-08-16T08:42:08Z</time></trkpt>
      <trkpt lat="38.53011" lon="-7.82221"><ele>294</ele><time>2026-08-16T08:42:34Z</time></trkpt>
      <trkpt lat="38.52880" lon="-7.81910"><ele>282</ele><time>2026-08-16T08:43:00Z</time></trkpt>
      <trkpt lat="38.52722" lon="-7.81645"><ele>269</ele><time>2026-08-16T08:43:26Z</time></trkpt>
      <trkpt lat="38.52554" lon="-7.81393"><ele>255</ele><time>2026-08-16T08:43:52Z</time></trkpt>
      <trkpt lat="38.52394" lon="-7.81115"><ele>241</ele><time>2026-08-16T08:44:18Z</time></trkpt>
      <trkpt lat="38.52257" lon="-7.80781"><ele>228</ele><time>2026-08-16T08:44:44Z</time></trkpt>
      <trkpt lat="38.52142" lon="-7.80383"><ele>217</ele><time>2026-08-16T08:45:10Z</time></trkpt>
      <trkpt lat="38.52037" lon="-7.79938"><ele>207</ele><time>2026-08-16T08:45:36Z</time></trkpt>
      <trkpt lat="38.51921" lon="-7.79476"><ele>199</ele><time>2026-08-16T08:46:02Z</time></trkpt>
      <trkpt lat="38.51775" lon="-7.79031"><ele>194</ele><time>2026-08-16T08:46:28Z</time></trkpt>
      <trkpt lat="38.51593" lon="-7.78623"><ele>192</ele><time>2026-08-16T08:46:54Z</time></trkpt>
      <trkpt lat="38.51380" lon="-7.78248"><ele>193</ele><time>2026-08-16T08:47:20Z</time></trkpt>
      <trkpt lat="38.51156" lon="-7.77878"><ele>196</ele><time>2026-08-16T08:47:46Z</time></trkpt>
      <trkpt lat="38.50943" lon="-7.77484"><ele>201</ele><time>2026-08-16T08:48:12Z</time></trkpt>
      <trkpt lat="38.50759" lon="-7.77041"><ele>208</ele><time>2026-08-16T08:48:38Z</time></trkpt>
      <trkpt lat="38.50607" lon="-7.76552"><ele>215</ele><time>2026-08-16T08:49:04Z</time></trkpt>
      <trkpt lat="38.50477" lon="-7.76039"><ele>223</ele><time>2026-08-16T08:49:30Z</time></trkpt>
      <trkpt lat="38.50347" lon="-7.75533"><ele>231</ele><time>2026-08-16T08:49:56Z</time></trkpt>
      <trkpt lat="38.50197" lon="-7.75060"><ele>239</ele><time>2026-08-16T08:50:22Z</time></trkpt>
      <trkpt lat="38.50018" lon="-7.74637"><ele>245</ele><time>2026-08-16T08:50:48Z</time></trkpt>
      <trkpt lat="38.49815" lon="-7.74252"><ele>249</ele><time>2026-08-16T08:51:14Z</time></trkpt>
      <trkpt lat="38.49607" lon="-7.73877"><ele>253</ele><time>2026-08-16T08:51:40Z</time></trkpt>
      <trkpt lat="38.49413" lon="-7.73478"><ele>254</ele><time>2026-08-16T08:52:06Z</time></trkpt>
      <trkpt lat="38.49249" lon="-7.73029"><ele>255</ele><time>2026-08-16T08:52:32Z</time></trkpt>
      <trkpt lat="38.49116" lon="-7.72529"><ele>255</ele><time>2026-08-16T08:52:58Z</time></trkpt>
      <trkpt lat="38.49001" lon="-7.71998"><ele>254</ele><time>2026-08-16T08:53:24Z</time></trkpt>
      <trkpt lat="38.48884" lon="-7.71472"><ele>254</ele><time>2026-08-16T08:53:50Z</time></trkpt>
      <trkpt lat="38.48744" lon="-7.70983"><ele>254</ele><time>2026-08-16T08:54:16Z</time></trkpt>
      <trkpt lat="38.48572" lon="-7.70547"><ele>256</ele><time>2026-08-16T08:54:42Z</time></trkpt>
      <trkpt lat="38.48374" lon="-7.70154"><ele>259</ele><time>2026-08-16T08:55:08Z</time></trkpt>
      <trkpt lat="38.48168" lon="-7.69776"><ele>263</ele><time>2026-08-16T08:55:34Z</time></trkpt>
      <trkpt lat="38.47973" lon="-7.69378"><ele>270</ele><time>2026-08-16T08:56:00Z</time></trkpt>
      <trkpt lat="38.47806" lon="-7.68935"><ele>278</ele><time>2026-08-16T08:56:26Z</time></trkpt>
      <trkpt lat="38.47666" lon="-7.68445"><ele>288</ele><time>2026-08-16T08:56:52Z</time></trkpt>
      <trkpt lat="38.47542" lon="-7.67931"><ele>299</ele><time>2026-08-16T08:57:18Z</time></trkpt>
      <trkpt lat="38.47410" lon="-7.67425"><ele>310</ele><time>2026-08-16T08:57:44Z</time></trkpt>
      <trkpt lat="38.47252" lon="-7.66960"><ele>322</ele><time>2026-08-16T08:58:10Z</time></trkpt>
      <trkpt lat="38.47060" lon="-7.66549"><ele>333</ele><time>2026-08-16T08:58:36Z</time></trkpt>
      <trkpt lat="38.46842" lon="-7.66180"><ele>342</ele><time>2026-08-16T08:59:02Z</time></trkpt>
      <trkpt lat="38.46618" lon="-7.65824"><ele>350</ele><time>2026-08-16T08:59:28Z</time></trkpt>
      <trkpt lat="38.46411" lon="-7.65445"><ele>355</ele><time>2026-08-16T08:59:54Z</time></trkpt>
      <trkpt lat="38.46236" lon="-7.65017"><ele>357</ele><time>2026-08-16T09:00:20Z</time></trkpt>
      <trkpt lat="38.46097" lon="-7.64538"><ele>357</ele><time>2026-08-16T09:00:46Z</time></trkpt>
      <trkpt lat="38.45982" lon="-7.64030"><ele>353</ele><time>2026-08-16T09:01:12Z</time></trkpt>
      <trkpt lat="38.45868" lon="-7.63516"><ele>347</ele><time>2026-08-16T09:01:38Z</time></trkpt>
      <trkpt lat="38.45737" lon="-7.63021"><ele>339</ele><time>2026-08-16T09:02:04Z</time></trkpt>
      <trkpt lat="38.45579" lon="-7.62566"><ele>328</ele><time>2026-08-16T09:02:30Z</time></trkpt>
      <trkpt lat="38.45402" lon="-7.62149"><ele>316</ele><time>2026-08-16T09:02:56Z</time></trkpt>
      <trkpt lat="38.45226" lon="-7.61747"><ele>304</ele><time>2026-08-16T09:03:22Z</time></trkpt>
      <trkpt lat="38.45070" lon="-7.61335"><ele>291</ele><time>2026-08-16T09:03:48Z</time></trkpt>
      <trkpt lat="38.44949" lon="-7.60897"><ele>280</ele><time>2026-08-16T09:04:14Z</time></trkpt>
      <trkpt lat="38.44864" lon="-7.60440"><ele>269</ele><time>2026-08-16T09:04:40Z</time></trkpt>
      <trkpt lat="38.44802" lon="-7.59996"><ele>260</ele><time>2026-08-16T09:05:06Z</time></trkpt>
      <trkpt lat="38.44745" lon="-7.59611"><ele>252</ele><time>2026-08-16T09:05:32Z</time></trkpt>
      <trkpt lat="38.44674" lon="-7.59312"><ele>246</ele><time>2026-08-16T09:05:58Z</time></trkpt>
      <trkpt lat="38.44579" lon="-7.59102"><ele>242</ele><time>2026-08-16T09:06:24Z</time></trkpt>
      <trkpt lat="38.44464" lon="-7.58958"><ele>239</ele><time>2026-08-16T09:06:50Z</time></trkpt>
      <trkpt lat="38.44344" lon="-7.58840"><ele>236</ele><time>2026-08-16T09:07:16Z</time></trkpt>
      <trkpt lat="38.44238" lon="-7.58700"><ele>235</ele><time>2026-08-16T09:07:42Z</time></trkpt>
      <trkpt lat="38.44157" lon="-7.58505"><ele>233</ele><time>2026-08-16T09:08:08Z</time></trkpt>
      <trkpt lat="38.44098" lon="-7.58242"><ele>230</ele><time>2026-08-16T09:08:34Z</time></trkpt>
      <trkpt lat="38.44046" lon="-7.57924"><ele>227</ele><time>2026-08-16T09:09:00Z</time></trkpt>
      <trkpt lat="38.43977" lon="-7.57583"><ele>222</ele><time>2026-08-16T09:09:26Z</time></trkpt>
      <trkpt lat="38.43875" lon="-7.57262"><ele>216</ele><time>2026-08-16T09:09:52Z</time></trkpt>
      <trkpt lat="38.43735" lon="-7.56978"><ele>208</ele><time>2026-08-16T09:10:18Z</time></trkpt>
      <trkpt lat="38.43568" lon="-7.56726"><ele>199</ele><time>2026-08-16T09:10:44Z</time></trkpt>
      <trkpt lat="38.43395" lon="-7.56480"><ele>189</ele><time>2026-08-16T09:11:10Z</time></trkpt>
      <trkpt lat="38.43241" lon="-7.56213"><ele>178</ele><time>2026-08-16T09:11:36Z</time></trkpt>
      <trkpt lat="38.43121" lon="-7.55906"><ele>167</ele><time>2026-08-16T09:12:02Z</time></trkpt>
      <trkpt lat="38.43040" lon="-7.55566"><ele>157</ele><time>2026-08-16T09:12:28Z</time></trkpt>
      <trkpt lat="38.42987" lon="-7.55222"><ele>147</ele><time>2026-08-16T09:12:54Z</time></trkpt>
      <trkpt lat="38.42937" lon="-7.54915"><ele>140</ele><time>2026-08-16T09:13:20Z</time></trkpt>
      <trkpt lat="38.42868" lon="-7.54672"><ele>135</ele><time>2026-08-16T09:13:46Z</time></trkpt>
      <trkpt lat="38.42774" lon="-7.54495"><ele>132</ele><time>2026-08-16T09:14:12Z</time></trkpt>
      <trkpt lat="38.42665" lon="-7.54364"><ele>132</ele><time>2026-08-16T09:14:38Z</time></trkpt>
      <trkpt lat="38.42560" lon="-7.54240"><ele>135</ele><time>2026-08-16T09:15:04Z</time></trkpt>
      <trkpt lat="38.42481" lon="-7.54080"><ele>141</ele><time>2026-08-16T09:15:30Z</time></trkpt>
      <trkpt lat="38.42442" lon="-7.53853"><ele>150</ele><time>2026-08-16T09:15:56Z</time></trkpt>
      <trkpt lat="38.42443" lon="-7.53553"><ele>160</ele><time>2026-08-16T09:16:22Z</time></trkpt>
      <trkpt lat="38.42473" lon="-7.53195"><ele>172</ele><time>2026-08-16T09:16:48Z</time></trkpt>
      <trkpt lat="38.42511" lon="-7.52813"><ele>184</ele><time>2026-08-16T09:17:14Z</time></trkpt>
      <trkpt lat="38.42541" lon="-7.52446"><ele>197</ele><time>2026-08-16T09:17:40Z</time></trkpt>
      <trkpt lat="38.42551" lon="-7.52110"><ele>209</ele><time>2026-08-16T09:18:06Z</time></trkpt>
      <trkpt lat="38.42547" lon="-7.51799"><ele>220</ele><time>2026-08-16T09:18:32Z</time></trkpt>
      <trkpt lat="38.42543" lon="-7.51487"><ele>230</ele><time>2026-08-16T09:18:58Z</time></trkpt>
      <trkpt lat="38.42559" lon="-7.51148"><ele>237</ele><time>2026-08-16T09:19:24Z</time></trkpt>
      <trkpt lat="38.42603" lon="-7.50764"><ele>243</ele><time>2026-08-16T09:19:50Z</time></trkpt>
      <trkpt lat="38.42673" lon="-7.50344"><ele>246</ele><time>2026-08-16T09:20:16Z</time></trkpt>
      <trkpt lat="38.42750" lon="-7.49917"><ele>248</ele><time>2026-08-16T09:20:42Z</time></trkpt>
      <trkpt lat="38.42815" lon="-7.49513"><ele>248</ele><time>2026-08-16T09:21:08Z</time></trkpt>
      <trkpt lat="38.42854" lon="-7.49153"><ele>248</ele><time>2026-08-16T09:21:34Z</time></trkpt>
      <trkpt lat="38.42862" lon="-7.48849"><ele>247</ele><time>2026-08-16T09:22:00Z</time></trkpt>
      <trkpt lat="38.42847" lon="-7.48586"><ele>246</ele><time>2026-08-16T09:22:26Z</time></trkpt>
      <trkpt lat="38.42828" lon="-7.48335"><ele>245</ele><time>2026-08-16T09:22:52Z</time></trkpt>
      <trkpt lat="38.42826" lon="-7.48062"><ele>246</ele><time>2026-08-16T09:23:18Z</time></trkpt>
      <trkpt lat="38.42856" lon="-7.47745"><ele>247</ele><time>2026-08-16T09:23:44Z</time></trkpt>
      <trkpt lat="38.42916" lon="-7.47387"><ele>250</ele><time>2026-08-16T09:24:10Z</time></trkpt>
      <trkpt lat="38.42992" lon="-7.47013"><ele>254</ele><time>2026-08-16T09:24:36Z</time></trkpt>
      <trkpt lat="38.43064" lon="-7.46660"><ele>260</ele><time>2026-08-16T09:25:02Z</time></trkpt>
      <trkpt lat="38.43115" lon="-7.46356"><ele>266</ele><time>2026-08-16T09:25:28Z</time></trkpt>
      <trkpt lat="38.43138" lon="-7.46109"><ele>273</ele><time>2026-08-16T09:25:54Z</time></trkpt>
      <trkpt lat="38.43142" lon="-7.45903"><ele>279</ele><time>2026-08-16T09:26:20Z</time></trkpt>
      <trkpt lat="38.43145" lon="-7.45703"><ele>285</ele><time>2026-08-16T09:26:46Z</time></trkpt>
      <trkpt lat="38.43168" lon="-7.45473"><ele>289</ele><time>2026-08-16T09:27:12Z</time></trkpt>
      <trkpt lat="38.43223" lon="-7.45190"><ele>292</ele><time>2026-08-16T09:27:38Z</time></trkpt>
      <trkpt lat="38.43306" lon="-7.44856"><ele>292</ele><time>2026-08-16T09:28:04Z</time></trkpt>
      <trkpt lat="38.43404" lon="-7.44494"><ele>289</ele><time>2026-08-16T09:28:30Z</time></trkpt>
      <trkpt lat="38.43494" lon="-7.44138"><ele>284</ele><time>2026-08-16T09:28:56Z</time></trkpt>
      <trkpt lat="38.43560" lon="-7.43820"><ele>276</ele><time>2026-08-16T09:29:22Z</time></trkpt>
      <trkpt lat="38.43595" lon="-7.43551"><ele>266</ele><time>2026-08-16T09:29:48Z</time></trkpt>
      <trkpt lat="38.43608" lon="-7.43320"><ele>254</ele><time>2026-08-16T09:30:14Z</time></trkpt>
      <trkpt lat="38.43617" lon="-7.43098"><ele>241</ele><time>2026-08-16T09:30:40Z</time></trkpt>
      <trkpt lat="38.43641" lon="-7.42852"><ele>227</ele><time>2026-08-16T09:31:06Z</time></trkpt>
      <trkpt lat="38.43692" lon="-7.42565"><ele>213</ele><time>2026-08-16T09:31:32Z</time></trkpt>
      <trkpt lat="38.43768" lon="-7.42242"><ele>199</ele><time>2026-08-16T09:31:58Z</time></trkpt>
      <trkpt lat="38.43853" lon="-7.41911"><ele>187</ele><time>2026-08-16T09:32:24Z</time></trkpt>
      <trkpt lat="38.43926" lon="-7.41609"><ele>177</ele><time>2026-08-16T09:32:50Z</time></trkpt>
      <trkpt lat="38.43970" lon="-7.41362"><ele>169</ele><time>2026-08-16T09:33:16Z</time></trkpt>
      <trkpt lat="38.43979" lon="-7.41177"><ele>163</ele><time>2026-08-16T09:33:42Z</time></trkpt>
      <trkpt lat="38.43965" lon="-7.41036"><ele>160</ele><time>2026-08-16T09:34:08Z</time></trkpt>
      <trkpt lat="38.43946" lon="-7.40905"><ele>159</ele><time>2026-08-16T09:34:34Z</time></trkpt>
      <trkpt lat="38.43945" lon="-7.40747"><ele>160</ele><time>2026-08-16T09:35:00Z</time></trkpt>
      <trkpt lat="38.43973" lon="-7.40540"><ele>163</ele><time>2026-08-16T09:35:26Z</time></trkpt>
      <trkpt lat="38.44028" lon="-7.40285"><ele>167</ele><time>2026-08-16T09:35:52Z</time></trkpt>
      <trkpt lat="38.44097" lon="-7.40004"><ele>171</ele><time>2026-08-16T09:36:18Z</time></trkpt>
      <trkpt lat="38.44160" lon="-7.39725"><ele>175</ele><time>2026-08-16T09:36:44Z</time></trkpt>
      <trkpt lat="38.44199" lon="-7.39472"><ele>179</ele><time>2026-08-16T09:37:10Z</time></trkpt>
      <trkpt lat="38.44210" lon="-7.39260"><ele>182</ele><time>2026-08-16T09:37:36Z</time></trkpt>
      <trkpt lat="38.44200" lon="-7.39081"><ele>184</ele><time>2026-08-16T09:38:02Z</time></trkpt>
      <trkpt lat="38.44190" lon="-7.38911"><ele>185</ele><time>2026-08-16T09:38:28Z</time></trkpt>
      <trkpt lat="38.44197" lon="-7.38722"><ele>184</ele><time>2026-08-16T09:38:54Z</time></trkpt>
      <trkpt lat="38.44234" lon="-7.38504"><ele>183</ele><time>2026-08-16T09:39:20Z</time></trkpt>
      <trkpt lat="38.44295" lon="-7.38270"><ele>181</ele><time>2026-08-16T09:39:46Z</time></trkpt>
      <trkpt lat="38.44360" lon="-7.38060"><ele>179</ele><time>2026-08-16T09:40:12Z</time></trkpt>
    </trkseg>
  </trk>
</gpx>
